ONEWEB-0045             
1 45151U 20008W   24184.94958085  .00000078  00000+0  18419-3 0  9993
2 45151  87.8965 163.1822 0002109  82.6290 277.5078 13.11415553216793
ONEWEB-0047             
1 45152U 20008X   24185.51193975  .00000670  00000+0  18819-2 0  9998
2 45152  87.8938 178.1865 0002074  88.8591 271.2774 13.10373470215524
ONEWEB-0048             
1 45153U 20008Y   24185.04882152  .00000745  00000+0  20979-2 0  9992
2 45153  87.8940 178.2941 0002071  89.9199 270.2166 13.10372986215050
ONEWEB-0049             
1 45154U 20008Z   24185.73770427  .00000674  00000+0  18944-2 0  9990
2 45154  87.8946 178.1380 0001967 104.3774 255.7572 13.10373681215374
ONEWEB-0051             
1 45155U 20008AA  24184.94788455  .00000077  00000+0  18157-3 0  9997
2 45155  87.8965 163.2241 0001903  82.4301 277.7043 13.11416086217477
ONEWEB-0052             
1 45156U 20008AB  24184.89444617  .00000703  00000+0  19787-2 0  9996
2 45156  87.8937 178.2750 0002096 102.7865 257.3497 13.10373431214393
ONEWEB-0053             
1 45157U 20008AC  24185.48703189 -.00000140  00000+0 -43696-3 0  9999
2 45157  87.8944 178.2107 0002390  87.2601 272.8800 13.10375463215208
ONEWEB-0054             
1 45158U 20008AD  24184.91104017  .00000249  00000+0  67831-3 0  9997
2 45158  87.8933 178.3062 0001960  87.5563 272.5789 13.10370411214480
